COMMENT,ORIGINATOR,NORAD_CAT_ID,OBJECT_NAME,OBJECT_TYPE,CLASSIFICATION_TYPE,INTLDES,EPOCH,EPOCH_MICROSECONDS,MEAN_MOTION,ECCENTRICITY,INCLINATION,RA_OF_ASC_NODE,ARG_OF_PERICENTER,MEAN_ANOMALY,EPHEMERIS_TYPE,ELEMENT_SET_NO,REV_AT_EPOCH,BSTAR,MEAN_MOTION_DOT,MEAN_MOTION_DDOT,FILE,TLE_LINE0,TLE_LINE1,TLE_LINE2,OBJECT_ID,OBJECT_NUMBER,SEMIMAJOR_AXIS,PERIOD,APOGEE,PERIGEE,DECAYED
"GENERATED VIA SPACETRACK.ORG API","18 SPCS","55097","SPACEBEE-160","PAYLOAD","U","23001CS","2023-12-31 16:58:08","223168","15.30282521","0.0012776","97.4489","65.0389","33.2096","326.9944","0","999","5519","0.00085667","0.00025134","0","4150400","0 SPACEBEE-160","1 55097U 23001CS  23365.70703962  .00025134  00000-0  85667-3 0  9995","2 55097  97.4489  65.0389 0012776  33.2096 326.9944 15.30282521 55192","2023-001CS","55097","6853.106","94.100","483.726","466.215","0"
"GENERATED VIA SPACETRACK.ORG API","18 SPCS","55097","SPACEBEE-160","PAYLOAD","U","23001CS","2024-01-01 02:23:05","870400","15.30300988","0.0012764","97.4487","65.4324","31.5737","328.6267","0","999","5525","0.00081818","0.00024011","0","4150923","0 SPACEBEE-160","1 55097U 23001CS  24001.09937350  .00024011  00000-0  81818-3 0  9992","2 55097  97.4487  65.4324 0012764  31.5737 328.6267 15.30300988 55255","2023-001CS","55097","6853.051","94.099","483.663","466.168","0"
"GENERATED VIA SPACETRACK.ORG API","18 SPCS","55097","SPACEBEE-160","PAYLOAD","U","23001CS","2024-01-01 16:30:31","534272","15.30332876","0.0012675","97.4487","66.0223","29.6617","330.534","0","999","5534","0.00087258","0.00025643","0","4151465","0 SPACEBEE-160","1 55097U 23001CS  24001.68786498  .00025643  00000-0  87258-3 0  9998","2 55097  97.4487  66.0223 0012675  29.6617 330.5340 15.30332876 55341","2023-001CS","55097","6852.955","94.097","483.506","466.134","0"
"GENERATED VIA SPACETRACK.ORG API","18 SPCS","55097","SPACEBEE-160","PAYLOAD","U","23001CS","2024-01-02 03:29:37","438944","15.3035848","0.0012681","97.4485","66.4816","27.89","332.3018","0","999","5541","0.00096868","0.00028509","0","4151464","0 SPACEBEE-160","1 55097U 23001CS  24002.14557221  .00028509  00000-0  96868-3 0  9991","2 55097  97.4485  66.4816 0012681  27.8900 332.3018 15.30358480 55412","2023-001CS","55097","6852.879","94.096","483.434","466.054","0"
"GENERATED VIA SPACETRACK.ORG API","18 SPCS","55097","SPACEBEE-160","PAYLOAD","U","23001CS","2024-01-02 03:29:37","438944","15.3035848","0.0012681","97.4485","66.4816","27.89","332.3018","0","999","5541","0.00096868","0.00028509","0","4151729","0 SPACEBEE-160","1 55097U 23001CS  24002.14557221  .00028509  00000-0  96868-3 0  9991","2 55097  97.4485  66.4816 0012681  27.8900 332.3018 15.30358480 55412","2023-001CS","55097","6852.879","94.096","483.434","466.054","0"
"GENERATED VIA SPACETRACK.ORG API","18 SPCS","55097","SPACEBEE-160","PAYLOAD","U","23001CS","2024-01-02 20:45:19","602144","15.30398423","0.0012613","97.4485","67.2031","25.6132","334.5731","0","999","5552","0.00092551","0.00027263","0","4151993","0 SPACEBEE-160","1 55097U 23001CS  24002.86481021  .00027263  00000-0  92551-3 0  9995","2 55097  97.4485  67.2031 0012613  25.6132 334.5731 15.30398423 55527","2023-001CS","55097","6852.760","94.093","483.268","465.981","0"
"GENERATED VIA SPACETRACK.ORG API","18 SPCS","55097","SPACEBEE-160","PAYLOAD","U","23001CS","2024-01-03 03:01:56","387712","15.30412454","0.0012631","97.4486","67.4657","24.6239","335.5602","0","999","5556","0.00091264","0.00026894","0","4152560","0 SPACEBEE-160","1 55097U 23001CS  24003.12634708  .00026894  00000-0  91264-3 0  9996","2 55097  97.4486  67.4657 0012631  24.6239 335.5602 15.30412454 55564","2023-001CS","55097","6852.718","94.092","483.238","465.927","0"
"GENERATED VIA SPACETRACK.ORG API","18 SPCS","55097","SPACEBEE-160","PAYLOAD","U","23001CS","2024-01-03 17:09:18","340704","15.30444885","0.001264","97.4489","68.0556","22.6368","337.5428","0","999","5565","0.00088804","0.00026191","0","4152805","0 SPACEBEE-160","1 55097U 23001CS  24003.71479561  .00026191  00000-0  88804-3 0  9991","2 55097  97.4489  68.0556 0012640  22.6368 337.5428 15.30444885 55654","2023-001CS","55097","6852.621","94.090","483.148","465.824","0"
"GENERATED VIA SPACETRACK.ORG API","18 SPCS","55097","SPACEBEE-160","PAYLOAD","U","23001CS","2024-01-03 17:09:18","340704","15.30444885","0.001264","97.4489","68.0556","22.6368","337.5428","0","999","5565","0.00088804","0.00026191","0","4152812","0 SPACEBEE-160","1 55097U 23001CS  24003.71479561  .00026191  00000-0  88804-3 0  9991","2 55097  97.4489  68.0556 0012640  22.6368 337.5428 15.30444885 55654","2023-001CS","55097","6852.621","94.090","483.148","465.824","0"
"GENERATED VIA SPACETRACK.ORG API","18 SPCS","55097","SPACEBEE-160","PAYLOAD","U","23001CS","2024-01-04 04:08:21","426144","15.304686","0.0012654","97.4489","68.5149","21.0942","339.0818","0","999","5572","0.00092242","0.00027231","0","4153368","0 SPACEBEE-160","1 55097U 23001CS  24004.17247021  .00027231  00000-0  92242-3 0  9993","2 55097  97.4489  68.5149 0012654  21.0942 339.0818 15.30468600 55722","2023-001CS","55097","6852.550","94.089","483.086","465.744","0"
"GENERATED VIA SPACETRACK.ORG API","18 SPCS","55097","SPACEBEE-160","PAYLOAD","U","23001CS","2024-01-04 16:41:32","654112","15.30495444","0.0012501","97.4488","69.0393","19.7339","340.4382","0","999","5580","0.00080571","0.00023784","0","4153685","0 SPACEBEE-160","1 55097U 23001CS  24004.69551683  .00023784  00000-0  80571-3 0  9993","2 55097  97.4488  69.0393 0012501  19.7339 340.4382 15.30495444 55800","2023-001CS","55097","6852.470","94.087","482.901","465.769","0"
"GENERATED VIA SPACETRACK.ORG API","18 SPCS","55097","SPACEBEE-160","PAYLOAD","U","23001CS","2024-01-05 03:40:34","333824","15.3051888","0.0012413","97.4488","69.4988","18.1534","342.0148","0","999","5587","0.000811","0.00023958","0","4153931","0 SPACEBEE-160","1 55097U 23001CS  24005.15317516  .00023958  00000-0  81100-3 0  9992","2 55097  97.4488  69.4988 0012413  18.1534 342.0148 15.30518880 55871","2023-001CS","55097","6852.400","94.086","482.771","465.759","0"
"GENERATED VIA SPACETRACK.ORG API","18 SPCS","55097","SPACEBEE-160","PAYLOAD","U","23001CS","2024-01-05 09:57:09","302400","15.30533685","0.0012379","97.4488","69.7611","17.1652","343.0005","0","999","5591","0.00087437","0.00025853","0","4154254","0 SPACEBEE-160","1 55097U 23001CS  24005.41469100  .00025853  00000-0  87437-3 0  9993","2 55097  97.4488  69.7611 0012379  17.1652 343.0005 15.30533685 55916","2023-001CS","55097","6852.356","94.085","482.703","465.738","0"
"GENERATED VIA SPACETRACK.ORG API","18 SPCS","55097","SPACEBEE-160","PAYLOAD","U","23001CS","2024-01-05 16:13:44","125824","15.30544929","0.0012443","97.4488","70.0236","16.141","344.0225","0","999","5595","0.00076625","0.00022646","0","4154502","0 SPACEBEE-160","1 55097U 23001CS  24005.67620516  .00022646  00000-0  76625-3 0  9995","2 55097  97.4488  70.0236 0012443  16.1410 344.0225 15.30544929 55959","2023-001CS","55097","6852.322","94.084","482.714","465.661","0"
"GENERATED VIA SPACETRACK.ORG API","18 SPCS","55097","SPACEBEE-160","PAYLOAD","U","23001CS","2024-01-06 03:12:44","486208","15.30571225","0.0012389","97.4488","70.483","14.4679","345.6913","0","999","5602","0.00089007","0.00026351","0","4155067","0 SPACEBEE-160","1 55097U 23001CS  24006.13384822  .00026351  00000-0  89007-3 0  9999","2 55097  97.4488  70.4830 0012389  14.4679 345.6913 15.30571225 56029","2023-001CS","55097","6852.244","94.083","482.598","465.620","0"
"GENERATED VIA SPACETRACK.ORG API","18 SPCS","55097","SPACEBEE-160","PAYLOAD","U","23001CS","2024-01-06 15:45:52","758432","15.30596578","0.0012262","97.4488","71.0075","12.7522","347.4027","0","999","5610","0.00080468","0.00023826","0","4155301","0 SPACEBEE-160","1 55097U 23001CS  24006.65686063  .00023826  00000-0  80468-3 0  9994","2 55097  97.4488  71.0075 0012262  12.7522 347.4027 15.30596578 56108","2023-001CS","55097","6852.168","94.081","482.435","465.631","0"
"GENERATED VIA SPACETRACK.ORG API","18 SPCS","55097","SPACEBEE-160","PAYLOAD","U","23001CS","2024-01-06 15:45:52","758432","15.30596578","0.0012262","97.4488","71.0075","12.7522","347.4027","0","999","5610","0.00080468","0.00023826","0","4155325","0 SPACEBEE-160","1 55097U 23001CS  24006.65686063  .00023826  00000-0  80468-3 0  9994","2 55097  97.4488  71.0075 0012262  12.7522 347.4027 15.30596578 56108","2023-001CS","55097","6852.168","94.081","482.435","465.631","0"
"GENERATED VIA SPACETRACK.ORG API","18 SPCS","55097","SPACEBEE-160","PAYLOAD","U","23001CS","2024-01-07 02:44:51","830592","15.30619549","0.001226","97.4489","71.467","11.2181","348.9331","0","999","5617","0.00077483","0.00022953","0","4155883","0 SPACEBEE-160","1 55097U 23001CS  24007.11448878  .00022953  00000-0  77483-3 0  9999","2 55097  97.4489  71.4670 0012260  11.2181 348.9331 15.30619549 56172","2023-001CS","55097","6852.100","94.080","482.365","465.564","0"
"GENERATED VIA SPACETRACK.ORG API","18 SPCS","55097","SPACEBEE-160","PAYLOAD","U","23001CS","2024-01-07 16:52:06","877632","15.30653417","0.0012189","97.4489","72.0576","9.235","350.9112","0","999","5626","0.00090461","0.00026851","0","4156152","0 SPACEBEE-160","1 55097U 23001CS  24007.70285738  .00026851  00000-0  90461-3 0  9990","2 55097  97.4489  72.0576 0012189   9.2350 350.9112 15.30653417 56261","2023-001CS","55097","6851.999","94.077","482.215","465.512","0"
"GENERATED VIA SPACETRACK.ORG API","18 SPCS","55097","SPACEBEE-160","PAYLOAD","U","23001CS","2024-01-07 16:52:06","877632","15.30653417","0.0012189","97.4489","72.0576","9.235","350.9112","0","999","5626","0.00090461","0.00026851","0","4156156","0 SPACEBEE-160","1 55097U 23001CS  24007.70285738  .00026851  00000-0  90461-3 0  9990","2 55097  97.4489  72.0576 0012189   9.2350 350.9112 15.30653417 56261","2023-001CS","55097","6851.999","94.077","482.215","465.512","0"
